[{"OBJECT_NAME":"STARLINK-33648","OBJECT_ID":"2025-063J","EPOCH":"2026-03-18T19:29:30.275808","MEAN_MOTION":15.30212383,"ECCENTRICITY":0.00014859,"INCLINATION":53.1627,"RA_OF_ASC_NODE":10.2723,"ARG_OF_PERICENTER":104.1741,"MEAN_ANOMALY":255.9425,"EPHEMERIS_TYPE":0,"CLASSIFICATION_TYPE":"U","NORAD_CAT_ID":63371,"ELEMENT_SET_NO":999,"REV_AT_EPOCH":5615,"BSTAR":0.00083442293,"MEAN_MOTION_DOT":0.00024445,"MEAN_MOTION_DDOT":0},{"OBJECT_NAME":"STARLINK-33614","OBJECT_ID":"2025-063K","EPOCH":"2026-03-18T22:51:53.063136","MEAN_MOTION":15.30209655,"ECCENTRICITY":0.00011331,"INCLINATION":53.1602,"RA_OF_ASC_NODE":6.8793,"ARG_OF_PERICENTER":88.1346,"MEAN_ANOMALY":271.9785,"EPHEMERIS_TYPE":0,"CLASSIFICATION_TYPE":"U","NORAD_CAT_ID":63372,"ELEMENT_SET_NO":999,"REV_AT_EPOCH":5621,"BSTAR":0.00071840182,"MEAN_MOTION_DOT":0.00020984,"MEAN_MOTION_DDOT":0},{"OBJECT_NAME":"STARLINK-33617","OBJECT_ID":"2025-063L","EPOCH":"2026-03-18T22:45:48.336768","MEAN_MOTION":15.30214714,"ECCENTRICITY":0.00012513,"INCLINATION":53.1594,"RA_OF_ASC_NODE":6.8489,"ARG_OF_PERICENTER":42.5975,"MEAN_ANOMALY":317.5122,"EPHEMERIS_TYPE":0,"CLASSIFICATION_TYPE":"U","NORAD_CAT_ID":63373,"ELEMENT_SET_NO":999,"REV_AT_EPOCH":5616,"BSTAR":0.00075716884,"MEAN_MOTION_DOT":0.00022143,"MEAN_MOTION_DDOT":0},{"OBJECT_NAME":"STARLINK-33618","OBJECT_ID":"2025-063M","EPOCH":"2026-03-18T22:41:14.635392","MEAN_MOTION":15.3020811,"ECCENTRICITY":0.00013259,"INCLINATION":53.1607,"RA_OF_ASC_NODE":6.8301,"ARG_OF_PERICENTER":94.0528,"MEAN_ANOMALY":266.0624,"EPHEMERIS_TYPE":0,"CLASSIFICATION_TYPE":"U","NORAD_CAT_ID":63374,"ELEMENT_SET_NO":999,"REV_AT_EPOCH":5621,"BSTAR":0.00056788871,"MEAN_MOTION_DOT":0.00016502,"MEAN_MOTION_DDOT":0},{"OBJECT_NAME":"STARLINK-33621","OBJECT_ID":"2025-063N","EPOCH":"2026-03-18T22:39:45.246816","MEAN_MOTION":15.30171043,"ECCENTRICITY":0.00010922,"INCLINATION":53.1609,"RA_OF_ASC_NODE":6.8279,"ARG_OF_PERICENTER":94.7798,"MEAN_ANOMALY":265.3328,"EPHEMERIS_TYPE":0,"CLASSIFICATION_TYPE":"U","NORAD_CAT_ID":63375,"ELEMENT_SET_NO":999,"REV_AT_EPOCH":5616,"BSTAR":0.00067839257,"MEAN_MOTION_DOT":0.00019768,"MEAN_MOTION_DDOT":0},{"OBJECT_NAME":"STARLINK-33539","OBJECT_ID":"2025-063P","EPOCH":"2026-03-18T20:57:20.928960","MEAN_MOTION":15.30204044,"ECCENTRICITY":0.00013345,"INCLINATION":53.1606,"RA_OF_ASC_NODE":19.8623,"ARG_OF_PERICENTER":90.3033,"MEAN_ANOMALY":269.8121,"EPHEMERIS_TYPE":0,"CLASSIFICATION_TYPE":"U","NORAD_CAT_ID":63376,"ELEMENT_SET_NO":999,"REV_AT_EPOCH":5597,"BSTAR":0.00075045522,"MEAN_MOTION_DOT":0.00021936,"MEAN_MOTION_DDOT":0},{"OBJECT_NAME":"STARLINK-33634","OBJECT_ID":"2025-063Q","EPOCH":"2026-03-18T12:26:10.993920","MEAN_MOTION":15.30213641,"ECCENTRICITY":0.00013715,"INCLINATION":53.1617,"RA_OF_ASC_NODE":11.2724,"ARG_OF_PERICENTER":73.4017,"MEAN_ANOMALY":286.7135,"EPHEMERIS_TYPE":0,"CLASSIFICATION_TYPE":"U","NORAD_CAT_ID":63377,"ELEMENT_SET_NO":999,"REV_AT_EPOCH":5611,"BSTAR":0.00057128686,"MEAN_MOTION_DOT":0.00016606,"MEAN_MOTION_DDOT":0},{"OBJECT_NAME":"STARLINK-33640","OBJECT_ID":"2025-063R","EPOCH":"2026-03-18T12:33:46.860192","MEAN_MOTION":15.3020205,"ECCENTRICITY":0.00010503,"INCLINATION":53.1604,"RA_OF_ASC_NODE":11.3054,"ARG_OF_PERICENTER":90.7242,"MEAN_ANOMALY":269.3879,"EPHEMERIS_TYPE":0,"CLASSIFICATION_TYPE":"U","NORAD_CAT_ID":63378,"ELEMENT_SET_NO":999,"REV_AT_EPOCH":5611,"BSTAR":0.00057771896,"MEAN_MOTION_DOT":0.00016791,"MEAN_MOTION_DDOT":0},{"OBJECT_NAME":"STARLINK-33636","OBJECT_ID":"2025-063S","EPOCH":"2026-03-18T20:11:53.449440","MEAN_MOTION":15.30205884,"ECCENTRICITY":0.00012046,"INCLINATION":53.1602,"RA_OF_ASC_NODE":9.7404,"ARG_OF_PERICENTER":96.6834,"MEAN_ANOMALY":263.4304,"EPHEMERIS_TYPE":0,"CLASSIFICATION_TYPE":"U","NORAD_CAT_ID":63379,"ELEMENT_SET_NO":999,"REV_AT_EPOCH":5611,"BSTAR":0.00054948651,"MEAN_MOTION_DOT":0.00015953,"MEAN_MOTION_DDOT":0},{"OBJECT_NAME":"STARLINK-33653","OBJECT_ID":"2025-063T","EPOCH":"2026-03-18T19:05:11.690880","MEAN_MOTION":15.30203556,"ECCENTRICITY":0.00013582,"INCLINATION":53.1619,"RA_OF_ASC_NODE":10.1603,"ARG_OF_PERICENTER":95.0277,"MEAN_ANOMALY":265.0879,"EPHEMERIS_TYPE":0,"CLASSIFICATION_TYPE":"U","NORAD_CAT_ID":63380,"ELEMENT_SET_NO":999,"REV_AT_EPOCH":5610,"BSTAR":0.0006893029,"MEAN_MOTION_DOT":0.00020113,"MEAN_MOTION_DDOT":0},{"OBJECT_NAME":"STARLINK-33643","OBJECT_ID":"2025-063U","EPOCH":"2026-03-18T18:57:35.519616","MEAN_MOTION":15.30209951,"ECCENTRICITY":0.00012234,"INCLINATION":53.1619,"RA_OF_ASC_NODE":10.1281,"ARG_OF_PERICENTER":93.2836,"MEAN_ANOMALY":266.8305,"EPHEMERIS_TYPE":0,"CLASSIFICATION_TYPE":"U","NORAD_CAT_ID":63381,"ELEMENT_SET_NO":999,"REV_AT_EPOCH":5615,"BSTAR":0.0005335046,"MEAN_MOTION_DOT":0.00015479,"MEAN_MOTION_DDOT":0},{"OBJECT_NAME":"STARLINK-33633","OBJECT_ID":"2025-063V","EPOCH":"2026-03-18T20:00:01.999872","MEAN_MOTION":15.75552735,"ECCENTRICITY":0.00151341,"INCLINATION":53.151,"RA_OF_ASC_NODE":355.9514,"ARG_OF_PERICENTER":179.2563,"MEAN_ANOMALY":275.538,"EPHEMERIS_TYPE":0,"CLASSIFICATION_TYPE":"U","NORAD_CAT_ID":63382,"ELEMENT_SET_NO":999,"REV_AT_EPOCH":591,"BSTAR":0.0044661059,"MEAN_MOTION_DOT":0.00762517,"MEAN_MOTION_DDOT":0},{"OBJECT_NAME":"STARLINK-33748","OBJECT_ID":"2025-063W","EPOCH":"2026-03-18T20:42:19.096992","MEAN_MOTION":15.30213305,"ECCENTRICITY":0.00018442,"INCLINATION":53.1598,"RA_OF_ASC_NODE":20.516,"ARG_OF_PERICENTER":78.1542,"MEAN_ANOMALY":281.9665,"EPHEMERIS_TYPE":0,"CLASSIFICATION_TYPE":"U","NORAD_CAT_ID":63383,"ELEMENT_SET_NO":999,"REV_AT_EPOCH":5601,"BSTAR":0.00094627023,"MEAN_MOTION_DOT":0.00027783,"MEAN_MOTION_DDOT":0},{"OBJECT_NAME":"STARLINK-33658","OBJECT_ID":"2025-063X","EPOCH":"2026-03-18T19:24:56.833632","MEAN_MOTION":15.3021671,"ECCENTRICITY":0.00018709,"INCLINATION":53.1622,"RA_OF_ASC_NODE":10.2439,"ARG_OF_PERICENTER":96.659,"MEAN_ANOMALY":263.4623,"EPHEMERIS_TYPE":0,"CLASSIFICATION_TYPE":"U","NORAD_CAT_ID":63384,"ELEMENT_SET_NO":999,"REV_AT_EPOCH":5615,"BSTAR":0.00074243449,"MEAN_MOTION_DOT":0.00021705,"MEAN_MOTION_DDOT":0},{"OBJECT_NAME":"STARLINK-33616","OBJECT_ID":"2025-063Y","EPOCH":"2026-03-18T20:39:16.908768","MEAN_MOTION":15.30212743,"ECCENTRICITY":0.00019703,"INCLINATION":53.1602,"RA_OF_ASC_NODE":20.5115,"ARG_OF_PERICENTER":81.634,"MEAN_ANOMALY":278.4885,"EPHEMERIS_TYPE":0,"CLASSIFICATION_TYPE":"U","NORAD_CAT_ID":63385,"ELEMENT_SET_NO":999,"REV_AT_EPOCH":5596,"BSTAR":0.00083553545,"MEAN_MOTION_DOT":0.00024479,"MEAN_MOTION_DDOT":0},{"OBJECT_NAME":"STARLINK-33571","OBJECT_ID":"2025-063Z","EPOCH":"2026-03-18T03:03:24.940800","MEAN_MOTION":15.30203597,"ECCENTRICITY":0.00011237,"INCLINATION":53.1613,"RA_OF_ASC_NODE":23.7318,"ARG_OF_PERICENTER":63.222,"MEAN_ANOMALY":296.8896,"EPHEMERIS_TYPE":0,"CLASSIFICATION_TYPE":"U","NORAD_CAT_ID":63386,"ELEMENT_SET_NO":999,"REV_AT_EPOCH":5585,"BSTAR":0.00066655866,"MEAN_MOTION_DOT":0.00019436,"MEAN_MOTION_DDOT":0}]
