STARLINK-33648          
1 63371U 25063J   26077.81215597  .00024445  00000+0  83442-3 0  9998
2 63371  53.1627  10.2723 0001485 104.1741 255.9425 15.30212383 56154
STARLINK-33614          
1 63372U 25063K   26077.95269749  .00020984  00000+0  71840-3 0  9995
2 63372  53.1602   6.8793 0001133  88.1346 271.9785 15.30209655 56210
STARLINK-33617          
1 63373U 25063L   26077.94847612  .00022143  00000+0  75717-3 0  9992
2 63373  53.1594   6.8489 0001251  42.5975 317.5122 15.30214714 56164
STARLINK-33618          
1 63374U 25063M   26077.94530828  .00016502  00000+0  56789-3 0  9991
2 63374  53.1607   6.8301 0001325  94.0528 266.0624 15.30208110 56215
STARLINK-33621          
1 63375U 25063N   26077.94427369  .00019768  00000+0  67839-3 0  9992
2 63375  53.1609   6.8279 0001092  94.7798 265.3328 15.30171043 56160
STARLINK-33539          
1 63376U 25063P   26077.87315890  .00021936  00000+0  75046-3 0  9999
2 63376  53.1606  19.8623 0001334  90.3033 269.8121 15.30204044 55974
STARLINK-33634          
1 63377U 25063Q   26077.51818280  .00016606  00000+0  57129-3 0  9992
2 63377  53.1617  11.2724 0001371  73.4017 286.7135 15.30213641 56113
STARLINK-33640          
1 63378U 25063R   26077.52345903  .00016791  00000+0  57772-3 0  9990
2 63378  53.1604  11.3054 0001050  90.7242 269.3879 15.30202050 56117
STARLINK-33636          
1 63379U 25063S   26077.84159085  .00015953  00000+0  54949-3 0  9992
2 63379  53.1602   9.7404 0001204  96.6834 263.4304 15.30205884 56115
STARLINK-33653          
1 63380U 25063T   26077.79527420  .00020113  00000+0  68930-3 0  9999
2 63380  53.1619  10.1603 0001358  95.0277 265.0879 15.30203556 56104
STARLINK-33643          
1 63381U 25063U   26077.78999444  .00015479  00000+0  53350-3 0  9997
2 63381  53.1619  10.1281 0001223  93.2836 266.8305 15.30209951 56152
STARLINK-33633          
1 63382U 25063V   26077.83335648  .00762517  00000+0  44661-2 0  9990
2 63382  53.1510 355.9514 0015134 179.2563 275.5380 15.75552735  5918
STARLINK-33748          
1 63383U 25063W   26077.86272103  .00027783  00000+0  94627-3 0  9997
2 63383  53.1598  20.5160 0001844  78.1542 281.9665 15.30213305 56016
STARLINK-33658          
1 63384U 25063X   26077.80899113  .00021705  00000+0  74243-3 0  9998
2 63384  53.1622  10.2439 0001870  96.6590 263.4623 15.30216710 56154
STARLINK-33616          
1 63385U 25063Y   26077.86061237  .00024479  00000+0  83554-3 0  9999
2 63385  53.1602  20.5115 0001970  81.6340 278.4885 15.30212743 55962
STARLINK-33571          
1 63386U 25063Z   26077.12737200  .00019436  00000+0  66656-3 0  9990
2 63386  53.1613  23.7318 0001123  63.2220 296.8896 15.30203597 55859
